INTELSAT 23 (IS-23)     
1 38867U 12057A   26204.81565147 -.00000280  00000+0  00000+0 0  9997
2 38867   0.0202 310.4150 0000277 228.4039   3.3362  1.00269114 50327
FM-6                    
1 39360U 13058A   26204.73181448 -.00000011  00000+0  00000+0 0  9999
2 39360   0.0110  29.6414 0000841 154.7712 264.1406  1.00275985 46449
INTELSAT 30 (IS-30)     
1 40271U 14062A   26204.51712506 -.00000146  00000+0  00000+0 0  9998
2 40271   0.0173  55.5052 0001759 339.9637 356.8933  1.00271330  7158
DIRECTV 14              
1 40333U 14078B   26204.35376696 -.00000121  00000+0  00000+0 0  9995
2 40333   0.0097  46.3610 0000642 353.0609 289.7825  1.00272581 42406
DIRECTV 15              
1 40663U 15026A   26204.59197844 -.00000097  00000+0  00000+0 0  9999
2 40663   0.0240  80.3848 0000425 323.3244   7.8425  1.00270533 40821
SKY MEXICO-1            
1 40664U 15026B   26204.81045145 -.00000229  00000+0  00000+0 0  9998
2 40664   0.0138 355.1799 0002735 136.7841  22.5299  1.00271034 40821
INTELSAT 34 (IS-34)     
1 40874U 15039A   26204.81513147 -.00000280  00000+0  00000+0 0  9994
2 40874   0.0094  20.5051 0000604  23.3416 135.6443  1.00270371 40001
INTELSAT 31 (IS-31)     
1 41581U 16035A   26204.59345177 -.00000146  00000+0  00000+0 0  9999
2 41581   0.0108 300.3107 0000948  16.9671 102.6366  1.00270098 37040
INTELSAT 36 (IS-36)     
1 41747U 16053A   26204.83977174 -.00000019  00000+0  00000+0 0  9997
2 41747   0.0119  41.4835 0002181 311.1547 319.7375  1.00272535 36329
INTELSAT 32E (IS-32E)   
1 41945U 17007B   26204.74628787  .00000000  00000+0  00000+0 0  9999
2 41945   0.0222  52.4804 0000495 357.9690 116.5083  1.00270146 34597
INTELSAT 35E (IS-35E)   
1 42818U 17041A   26204.74802123 -.00000233  00000+0  00000+0 0  9994
2 42818   0.0176  62.0653 0002153  57.1391  57.0588  1.00271451 33187
INTELSAT 37E (IS-37E)   
1 42950U 17059A   26204.82265086  .00000000  00000+0  00000+0 0  9991
2 42950   0.0244  58.6805 0003113  71.7110  89.3230  1.00270312 32432
AZERSPACE 2 (IS-38)     
1 43632U 18074A   26204.35669890  .00000141  00000+0  00000+0 0  9992
2 43632   0.0174  47.4997 0001318  54.2391  12.8730  1.00269800 28815
HORIZONS-3E             
1 43633U 18074B   26204.57447168 -.00000026  00000+0  00000+0 0  9992
2 43633   0.0322 239.3133 0000315  79.1148 358.6734  1.00272034 28703
AT&T T-16               
1 44333U 19034A   26204.09332698 -.00000111  00000+0  00000+0 0  9990
2 44333   0.0154  76.6092 0000631 292.9337 224.0216  1.00273461 25990
INTELSAT 39 (IS-39)     
1 44476U 19049B   26204.76711792  .00000000  00000+0  00000+0 0  9990
2 44476   0.0221  55.4483 0000594 320.7391 263.4215  1.00271086 25492
GALAXY 30 (G-30)        
1 46114U 20056C   26204.51629133  .00000042  00000+0  00000+0 0  9997
2 46114   0.0142  37.0549 0002323  82.3407 242.7034  1.00270548 21650
GALAXY 33 (G-33)        
1 54026U 22128A   26204.60232295  .00000084  00000+0  00000+0 0  9995
2 54026   0.0156  17.2912 0002041  96.7538 271.1186  1.00271354 14103
GALAXY 34 (G-34)        
1 54027U 22128B   26204.60278126  .00000064  00000+0  00000+0 0  9997
2 54027   0.0094  46.7893 0001756  69.9013 272.6376  1.00271652 14278
GALAXY 31 (G-31)        
1 54243U 22153A   26204.60934703  .00000000  00000+0  00000+0 0  9995
2 54243   0.0184  69.6315 0001516  54.6669 275.4098  1.00270196  7493
GALAXY 32 (G-32)        
1 54244U 22153B   26204.80802477 -.00000169  00000+0  00000+0 0  9997
2 54244   0.0100  52.5893 0001524   6.5204  82.3183  1.00272150 13516
GALAXY 35 (G-35)        
1 54741U 22170A   26204.80776477  .00000000  00000+0  00000+0 0  9991
2 54741   0.0145  62.0636 0002177  60.1841  16.9816  1.00269646 13260
GALAXY 36 (G-36)        
1 54742U 22170B   26204.80845810 -.00000180  00000+0  00000+0 0  9990
2 54742   0.0227 121.2277 0002796 340.0494  42.3022  1.00272077 13143
GALAXY 37 (G-37)        
1 57493U 23112A   26204.60416300  .00000053  00000+0  00000+0 0  9997
2 57493   0.0150  65.8309 0002137  49.6886 276.3119  1.00271728 10908
